SL-16 R/B               
1 25400U 98043G   25354.58665161  .00000020  00000+0  27466-4 0  9992
2 25400  98.8137 302.4490 0008853 241.2381 118.7910 14.26027167427710
SL-16 R/B               
1 25407U 98045B   25354.39317263  .00000154  00000+0  10183-3 0  9992
2 25407  71.0115 348.3313 0006512 164.2066 195.9261 14.16175206415870
ISS (ZARYA)             
1 25544U 98067A   25354.60225114  .00006881  00000+0  12984-3 0  9999
2 25544  51.6321 103.5427 0003193 277.2005  82.8620 15.49685042544071
CZ-4B R/B               
1 25732U 99025C   25354.66035206  .00000051  00000+0  45319-4 0  9992
2 25732  98.6757  35.7629 0036617 210.8181 259.4430 14.18245472376965
OKEAN-O                 
1 25860U 99039A   25354.15808035  .00000536  00000+0  77424-4 0  9991
2 25860  97.9592  49.7953 0000984 111.0136 249.1182 14.80173348422627
SL-16 R/B               
1 25861U 99039B   25354.61879705  .00000409  00000+0  58890-4 0  9990
2 25861  98.0115  48.7702 0015525 149.7447 210.4666 14.81596757425155
DELTA 2 R/B             
1 25876U 99041E   25354.14862415  .00000611  00000+0  13853-3 0  9991
2 25876  51.7610 258.8703 0504549 113.6019 251.8720 14.11419252351791
HELIOS 1B               
1 25977U 99064A   25354.67487955  .00001193  00000+0  13873-3 0  9996
2 25977  98.1757 249.5759 0001243  33.3497 326.7796 14.87309901673513
TERRA                   
1 25994U 99068A   25354.55109751  .00000314  00000+0  73190-4 0  9994
2 25994  97.9737  45.9485 0003538  79.0674  28.9885 14.60909835383526
SL-16 R/B               
1 26070U 00006B   25354.17601967 -.00000151  00000+0 -52385-4 0  9992
2 26070  71.0019 265.0222 0018578 298.5583  61.3670 14.15808455337303
TITAN 4B R/B            
1 26474U 00047B   25354.56537696  .00002337  00000+0  15420-3 0  9999
2 26474  67.9898 262.8762 0038375 135.1966 225.2293 15.08833094380975
ENVISAT                 
1 27386U 02009A   25352.94754304  .00000081  00000+0  39999-4 0  9991
2 27386  98.3609 303.5309 0001126  84.8976 298.2993 14.39001403247569
